COSMOS 2251 DEB         
1 34009U 93036GU  26094.14790829  .00000429  00000+0  16433-3 0  9992
2 34009  74.0352 131.5055 0027518 179.0340 244.2258 14.33323073895565
COSMOS 2251 DEB         
1 34010U 93036GV  26094.26740486  .01296795  00000+0  10640-1 0  9997
2 34010  73.9823  41.5953 0020628 181.0577 179.0605 15.67390799910112
COSMOS 2251 DEB         
1 34011U 93036GW  26094.06952112  .00003292  00000+0  99298-3 0  9992
2 34011  74.0119 121.5912 0037945 185.3159 174.7600 14.42460345895352
COSMOS 2251 DEB         
1 34014U 93036GZ  26093.97983115  .00010258  00000+0  15211-2 0  9993
2 34014  74.0163  61.4890 0038902 177.8387 247.8413 14.74654157909579
COSMOS 2251 DEB         
1 34015U 93036HA  26094.02864455  .00004614  00000+0  94072-3 0  9998
2 34015  74.0237 304.7524 0019342  14.5536 137.6860 14.61148137901700
COSMOS 2251 DEB         
1 34018U 93036HD  26094.24134184  .00000662  00000+0  49739-3 0  9993
2 34018  73.8755 261.4089 0264724 276.4799 261.6043 13.81233118862102
COSMOS 2251 DEB         
1 34019U 93036HE  26094.28381451  .00002839  00000+0  99543-3 0  9995
2 34019  73.9544 203.6733 0061400 357.6677  31.4425 14.34456566891345
COSMOS 2251 DEB         
1 34021U 93036HG  26093.58426726  .00002263  00000+0  58534-3 0  9991
2 34021  74.0342 279.7501 0019474  34.9014  21.8895 14.50362183902512
COSMOS 2251 DEB         
1 34022U 93036HH  26094.28709706  .00001013  00000+0  33480-3 0  9997
2 34022  74.0533  63.3831 0020924 105.7702  16.5227 14.39141527898148
COSMOS 2251 DEB         
1 34023U 93036HJ  26094.24328646  .00001634  00000+0  51725-3 0  9995
2 34023  74.0256  43.4898 0017453 120.2722 359.2506 14.40828057898341
COSMOS 2251 DEB         
1 34024U 93036HK  26094.15289646  .00000629  00000+0  22691-3 0  9995
2 34024  74.0437 109.9378 0020331 140.6396 285.2118 14.35532256896371
COSMOS 2251 DEB         
1 34026U 93036HM  26094.22202877  .00001117  00000+0  92348-3 0  9995
2 34026  73.7655 150.2246 0347867   2.0892  52.0228 13.65530954850672
COSMOS 2251 DEB         
1 34028U 93036HP  26094.23350345  .00000525  00000+0  61501-3 0  9991
2 34028  73.8834 174.7558 0546397 293.5578  90.2696 13.20738246824936
COSMOS 2251 DEB         
1 34031U 93036HS  26093.92482245  .00008492  00000+0  17285-2 0  9995
2 34031  74.0115 281.2014 0021801  14.2481 114.7603 14.61024322902032
COSMOS 2251 DEB         
1 34035U 93036HW  26094.11909932  .00008763  00000+0  20845-2 0  9995
2 34035  74.0626 137.5316 0038747 116.9509 274.6784 14.53494101895987
COSMOS 2251 DEB         
1 34036U 93036HX  26093.94919277  .00108547  00000+0  71323-2 0  9997
2 34036  74.0139 280.7294 0005650 286.8561  73.2010 15.07024092902538
