[{"OBJECT_NAME":"COSMOS 2251 DEB","OBJECT_ID":"1993-036GU","EPOCH":"2026-04-04T03:32:59.276256","MEAN_MOTION":14.33323073,"ECCENTRICITY":0.00275187,"INCLINATION":74.0352,"RA_OF_ASC_NODE":131.5055,"ARG_OF_PERICENTER":179.034,"MEAN_ANOMALY":244.2258,"EPHEMERIS_TYPE":0,"CLASSIFICATION_TYPE":"U","NORAD_CAT_ID":34009,"ELEMENT_SET_NO":999,"REV_AT_EPOCH":89556,"BSTAR":0.00016432969,"MEAN_MOTION_DOT":4.29e-6,"MEAN_MOTION_DDOT":0},{"OBJECT_NAME":"COSMOS 2251 DEB","OBJECT_ID":"1993-036GV","EPOCH":"2026-04-04T06:25:03.779904","MEAN_MOTION":15.67390799,"ECCENTRICITY":0.00206283,"INCLINATION":73.9823,"RA_OF_ASC_NODE":41.5953,"ARG_OF_PERICENTER":181.0577,"MEAN_ANOMALY":179.0605,"EPHEMERIS_TYPE":0,"CLASSIFICATION_TYPE":"U","NORAD_CAT_ID":34010,"ELEMENT_SET_NO":999,"REV_AT_EPOCH":91011,"BSTAR":0.010639536,"MEAN_MOTION_DOT":0.01296795,"MEAN_MOTION_DDOT":0},{"OBJECT_NAME":"COSMOS 2251 DEB","OBJECT_ID":"1993-036GW","EPOCH":"2026-04-04T01:40:06.624768","MEAN_MOTION":14.42460345,"ECCENTRICITY":0.00379458,"INCLINATION":74.0119,"RA_OF_ASC_NODE":121.5912,"ARG_OF_PERICENTER":185.3159,"MEAN_ANOMALY":174.76,"EPHEMERIS_TYPE":0,"CLASSIFICATION_TYPE":"U","NORAD_CAT_ID":34011,"ELEMENT_SET_NO":999,"REV_AT_EPOCH":89535,"BSTAR":0.00099298292,"MEAN_MOTION_DOT":3.292e-5,"MEAN_MOTION_DDOT":0},{"OBJECT_NAME":"COSMOS 2251 DEB","OBJECT_ID":"1993-036GZ","EPOCH":"2026-04-03T23:30:57.411360","MEAN_MOTION":14.74654157,"ECCENTRICITY":0.0038902,"INCLINATION":74.0163,"RA_OF_ASC_NODE":61.489,"ARG_OF_PERICENTER":177.8387,"MEAN_ANOMALY":247.8413,"EPHEMERIS_TYPE":0,"CLASSIFICATION_TYPE":"U","NORAD_CAT_ID":34014,"ELEMENT_SET_NO":999,"REV_AT_EPOCH":90957,"BSTAR":0.0015211193,"MEAN_MOTION_DOT":0.00010258,"MEAN_MOTION_DDOT":0},{"OBJECT_NAME":"COSMOS 2251 DEB","OBJECT_ID":"1993-036HA","EPOCH":"2026-04-04T00:41:14.889120","MEAN_MOTION":14.61148137,"ECCENTRICITY":0.00193424,"INCLINATION":74.0237,"RA_OF_ASC_NODE":304.7524,"ARG_OF_PERICENTER":14.5536,"MEAN_ANOMALY":137.686,"EPHEMERIS_TYPE":0,"CLASSIFICATION_TYPE":"U","NORAD_CAT_ID":34015,"ELEMENT_SET_NO":999,"REV_AT_EPOCH":90170,"BSTAR":0.00094071854,"MEAN_MOTION_DOT":4.614e-5,"MEAN_MOTION_DDOT":0},{"OBJECT_NAME":"COSMOS 2251 DEB","OBJECT_ID":"1993-036HD","EPOCH":"2026-04-04T05:47:31.934976","MEAN_MOTION":13.81233118,"ECCENTRICITY":0.0264724,"INCLINATION":73.8755,"RA_OF_ASC_NODE":261.4089,"ARG_OF_PERICENTER":276.4799,"MEAN_ANOMALY":261.6043,"EPHEMERIS_TYPE":0,"CLASSIFICATION_TYPE":"U","NORAD_CAT_ID":34018,"ELEMENT_SET_NO":999,"REV_AT_EPOCH":86210,"BSTAR":0.00049739462,"MEAN_MOTION_DOT":6.62e-6,"MEAN_MOTION_DDOT":0},{"OBJECT_NAME":"COSMOS 2251 DEB","OBJECT_ID":"1993-036HE","EPOCH":"2026-04-04T06:48:41.573664","MEAN_MOTION":14.34456566,"ECCENTRICITY":0.00614009,"INCLINATION":73.9544,"RA_OF_ASC_NODE":203.6733,"ARG_OF_PERICENTER":357.6677,"MEAN_ANOMALY":31.4425,"EPHEMERIS_TYPE":0,"CLASSIFICATION_TYPE":"U","NORAD_CAT_ID":34019,"ELEMENT_SET_NO":999,"REV_AT_EPOCH":89134,"BSTAR":0.00099543027,"MEAN_MOTION_DOT":2.839e-5,"MEAN_MOTION_DDOT":0},{"OBJECT_NAME":"COSMOS 2251 DEB","OBJECT_ID":"1993-036HG","EPOCH":"2026-04-03T14:01:20.691264","MEAN_MOTION":14.50362183,"ECCENTRICITY":0.0019474,"INCLINATION":74.0342,"RA_OF_ASC_NODE":279.7501,"ARG_OF_PERICENTER":34.9014,"MEAN_ANOMALY":21.8895,"EPHEMERIS_TYPE":0,"CLASSIFICATION_TYPE":"U","NORAD_CAT_ID":34021,"ELEMENT_SET_NO":999,"REV_AT_EPOCH":90251,"BSTAR":0.00058534,"MEAN_MOTION_DOT":2.263e-5,"MEAN_MOTION_DDOT":0},{"OBJECT_NAME":"COSMOS 2251 DEB","OBJECT_ID":"1993-036HH","EPOCH":"2026-04-04T06:53:25.185984","MEAN_MOTION":14.39141527,"ECCENTRICITY":0.00209247,"INCLINATION":74.0533,"RA_OF_ASC_NODE":63.3831,"ARG_OF_PERICENTER":105.7702,"MEAN_ANOMALY":16.5227,"EPHEMERIS_TYPE":0,"CLASSIFICATION_TYPE":"U","NORAD_CAT_ID":34022,"ELEMENT_SET_NO":999,"REV_AT_EPOCH":89814,"BSTAR":0.00033480123,"MEAN_MOTION_DOT":1.013e-5,"MEAN_MOTION_DDOT":0},{"OBJECT_NAME":"COSMOS 2251 DEB","OBJECT_ID":"1993-036HJ","EPOCH":"2026-04-04T05:50:19.950144","MEAN_MOTION":14.40828057,"ECCENTRICITY":0.00174538,"INCLINATION":74.0256,"RA_OF_ASC_NODE":43.4898,"ARG_OF_PERICENTER":120.2722,"MEAN_ANOMALY":359.2506,"EPHEMERIS_TYPE":0,"CLASSIFICATION_TYPE":"U","NORAD_CAT_ID":34023,"ELEMENT_SET_NO":999,"REV_AT_EPOCH":89834,"BSTAR":0.00051724774,"MEAN_MOTION_DOT":1.634e-5,"MEAN_MOTION_DDOT":0},{"OBJECT_NAME":"COSMOS 2251 DEB","OBJECT_ID":"1993-036HK","EPOCH":"2026-04-04T03:40:10.254144","MEAN_MOTION":14.35532256,"ECCENTRICITY":0.00203318,"INCLINATION":74.0437,"RA_OF_ASC_NODE":109.9378,"ARG_OF_PERICENTER":140.6396,"MEAN_ANOMALY":285.2118,"EPHEMERIS_TYPE":0,"CLASSIFICATION_TYPE":"U","NORAD_CAT_ID":34024,"ELEMENT_SET_NO":999,"REV_AT_EPOCH":89637,"BSTAR":0.00022690817,"MEAN_MOTION_DOT":6.29e-6,"MEAN_MOTION_DDOT":0},{"OBJECT_NAME":"COSMOS 2251 DEB","OBJECT_ID":"1993-036HM","EPOCH":"2026-04-04T05:19:43.285728","MEAN_MOTION":13.65530954,"ECCENTRICITY":0.0347867,"INCLINATION":73.7655,"RA_OF_ASC_NODE":150.2246,"ARG_OF_PERICENTER":2.0892,"MEAN_ANOMALY":52.0228,"EPHEMERIS_TYPE":0,"CLASSIFICATION_TYPE":"U","NORAD_CAT_ID":34026,"ELEMENT_SET_NO":999,"REV_AT_EPOCH":85067,"BSTAR":0.00092347632,"MEAN_MOTION_DOT":1.117e-5,"MEAN_MOTION_DDOT":0},{"OBJECT_NAME":"COSMOS 2251 DEB","OBJECT_ID":"1993-036HP","EPOCH":"2026-04-04T05:36:14.698080","MEAN_MOTION":13.20738246,"ECCENTRICITY":0.05463972,"INCLINATION":73.8834,"RA_OF_ASC_NODE":174.7558,"ARG_OF_PERICENTER":293.5578,"MEAN_ANOMALY":90.2696,"EPHEMERIS_TYPE":0,"CLASSIFICATION_TYPE":"U","NORAD_CAT_ID":34028,"ELEMENT_SET_NO":999,"REV_AT_EPOCH":82493,"BSTAR":0.00061500763,"MEAN_MOTION_DOT":5.25e-6,"MEAN_MOTION_DDOT":0},{"OBJECT_NAME":"COSMOS 2251 DEB","OBJECT_ID":"1993-036HS","EPOCH":"2026-04-03T22:11:44.659680","MEAN_MOTION":14.61024322,"ECCENTRICITY":0.0021801,"INCLINATION":74.0115,"RA_OF_ASC_NODE":281.2014,"ARG_OF_PERICENTER":14.2481,"MEAN_ANOMALY":114.7603,"EPHEMERIS_TYPE":0,"CLASSIFICATION_TYPE":"U","NORAD_CAT_ID":34031,"ELEMENT_SET_NO":999,"REV_AT_EPOCH":90203,"BSTAR":0.0017285274,"MEAN_MOTION_DOT":8.492e-5,"MEAN_MOTION_DDOT":0},{"OBJECT_NAME":"COSMOS 2251 DEB","OBJECT_ID":"1993-036HW","EPOCH":"2026-04-04T02:51:30.181248","MEAN_MOTION":14.53494101,"ECCENTRICITY":0.00387473,"INCLINATION":74.0626,"RA_OF_ASC_NODE":137.5316,"ARG_OF_PERICENTER":116.9509,"MEAN_ANOMALY":274.6784,"EPHEMERIS_TYPE":0,"CLASSIFICATION_TYPE":"U","NORAD_CAT_ID":34035,"ELEMENT_SET_NO":999,"REV_AT_EPOCH":89598,"BSTAR":0.0020845232,"MEAN_MOTION_DOT":8.763e-5,"MEAN_MOTION_DDOT":0},{"OBJECT_NAME":"COSMOS 2251 DEB","OBJECT_ID":"1993-036HX","EPOCH":"2026-04-03T22:46:50.255328","MEAN_MOTION":15.07024092,"ECCENTRICITY":0.00056504,"INCLINATION":74.0139,"RA_OF_ASC_NODE":280.7294,"ARG_OF_PERICENTER":286.8561,"MEAN_ANOMALY":73.201,"EPHEMERIS_TYPE":0,"CLASSIFICATION_TYPE":"U","NORAD_CAT_ID":34036,"ELEMENT_SET_NO":999,"REV_AT_EPOCH":90253,"BSTAR":0.0071323161,"MEAN_MOTION_DOT":0.00108547,"MEAN_MOTION_DDOT":0}]
